start=new Date('2021-12-14T00:00:00.000Z').valueOf();
sats=[{"FILE":"3239585","LAUNCH_DATE":"2021-02-16","REF_FRAME":"TEME","SEMIMAJOR_AXIS":"6925.346","DECAY_DATE":null,"CENTER_NAME":"EARTH","NORAD_CAT_ID":"47645","RA_OF_ASC_NODE":"145.4858","ARG_OF_PERICENTER":"105.7817","EPHEMERIS_TYPE":"0","MEAN_MOTION_DDOT":"0.0000000000000","OBJECT_NAME":"STARLINK-2027","MEAN_ANOMALY":"254.3960","MEAN_ELEMENT_THEORY":"SGP4","MEAN_MOTION":"15.06400733","OBJECT_TYPE":"PAYLOAD","TLE_LINE2":"2 47645  53.0540 145.4858 0007137 105.7817 254.3960 15.06400733 47242","REV_AT_EPOCH":"4724","RCS_SIZE":"LARGE","BSTAR":"0.00003704500000","ECCENTRICITY":"0.00071370","PERIOD":"95.592","EPOCH":"2021-12-13T21:14:52.283904","MEAN_MOTION_DOT":"0.00000268","TIME_SYSTEM":"UTC","GP_ID":"191660022","OBJECT_ID":"2021-012AB","TLE_LINE1":"1 47645U 21012AB  21347.88532736  .00000268  00000-0  37045-4 0  9990","COUNTRY_CODE":"US","ELEMENT_SET_NO":"999","SITE":"AFETR","INCLINATION":"53.0540","PERIAPSIS":"542.269","APOAPSIS":"552.154","CLASSIFICATION_TYPE":"U"},{"ELEMENT_SET_NO":"999","TLE_LINE1":"1 47646U 21012AC  21347.93828588  .00000759  00000-0  69828-4 0  9999","COUNTRY_CODE":"US","TIME_SYSTEM":"UTC","OBJECT_ID":"2021-012AC","GP_ID":"191660774","EPOCH":"2021-12-13T22:31:07.900032","MEAN_MOTION_DOT":"0.00000759","PERIOD":"95.592","ECCENTRICITY":"0.00012490","PERIAPSIS":"546.358","APOAPSIS":"548.088","CLASSIFICATION_TYPE":"U","INCLINATION":"53.0560","SITE":"AFETR","NORAD_CAT_ID":"47646","CENTER_NAME":"EARTH","DECAY_DATE":null,"SEMIMAJOR_AXIS":"6925.358","LAUNCH_DATE":"2021-02-16","REF_FRAME":"TEME","FILE":"3239585","BSTAR":"0.00006982800000","RCS_SIZE":"LARGE","REV_AT_EPOCH":"4774","MEAN_MOTION":"15.06396819","OBJECT_TYPE":"PAYLOAD","TLE_LINE2":"2 47646  53.0560 110.2532 0001249  92.7094 267.4038 15.06396819 47749","MEAN_ELEMENT_THEORY":"SGP4","MEAN_ANOMALY":"267.4038","OBJECT_NAME":"STARLINK-2028","MEAN_MOTION_DDOT":"0.0000000000000","RA_OF_ASC_NODE":"110.2532","ARG_OF_PERICENTER":"92.7094","EPHEMERIS_TYPE":"0"},{"NORAD_CAT_ID":"47647","CENTER_NAME":"EARTH","DECAY_DATE":null,"SEMIMAJOR_AXIS":"6925.337","REF_FRAME":"TEME","LAUNCH_DATE":"2021-02-16","FILE":"3239585","BSTAR":"0.00002034300000","RCS_SIZE":"LARGE","REV_AT_EPOCH":"4685","TLE_LINE2":"2 47647  53.0547 175.4385 0002218  85.2930 274.8312 15.06403645 46851","OBJECT_TYPE":"PAYLOAD","MEAN_MOTION":"15.06403645","MEAN_ELEMENT_THEORY":"SGP4","MEAN_ANOMALY":"274.8312","OBJECT_NAME":"STARLINK-2030","MEAN_MOTION_DDOT":"0.0000000000000","EPHEMERIS_TYPE":"0","RA_OF_ASC_NODE":"175.4385","ARG_OF_PERICENTER":"85.2930","ELEMENT_SET_NO":"999","COUNTRY_CODE":"US","TLE_LINE1":"1 47647U 21012AD  21347.89822063  .00000021  00000-0  20343-4 0  9998","GP_ID":"191659021","OBJECT_ID":"2021-012AD","TIME_SYSTEM":"UTC","MEAN_MOTION_DOT":"0.00000021","EPOCH":"2021-12-13T21:33:26.262432","PERIOD":"95.592","ECCENTRICITY":"0.00022180","CLASSIFICATION_TYPE":"U","APOAPSIS":"548.738","PERIAPSIS":"545.666","INCLINATION":"53.0547","SITE":"AFETR"},{"REF_FRAME":"TEME","LAUNCH_DATE":"2021-02-16","SEMIMAJOR_AXIS":"6925.333","FILE":"3239585","CENTER_NAME":"EARTH","NORAD_CAT_ID":"47648","DECAY_DATE":null,"OBJECT_NAME":"STARLINK-2031","MEAN_MOTION_DDOT":"0.0000000000000","MEAN_ELEMENT_THEORY":"SGP4","MEAN_ANOMALY":"274.6370","EPHEMERIS_TYPE":"0","ARG_OF_PERICENTER":"85.4862","RA_OF_ASC_NODE":"155.4743","BSTAR":"0.00003298200000","TLE_LINE2":"2 47648  53.0550 155.4743 0002124  85.4862 274.6370 15.06405059 47139","OBJECT_TYPE":"PAYLOAD","MEAN_MOTION":"15.06405059","REV_AT_EPOCH":"4713","RCS_SIZE":"MEDIUM","MEAN_MOTION_DOT":"0.00000210","EPOCH":"2021-12-13T21:20:09.665664","ECCENTRICITY":"0.00021240","PERIOD":"95.592","ELEMENT_SET_NO":"999","GP_ID":"191659272","OBJECT_ID":"2021-012AE","TIME_SYSTEM":"UTC","COUNTRY_CODE":"US","TLE_LINE1":"1 47648U 21012AE  21347.88900076  .00000210  00000-0  32982-4 0  9991","INCLINATION":"53.0550","CLASSIFICATION_TYPE":"U","PERIAPSIS":"545.727","APOAPSIS":"548.669","SITE":"AFETR"},{"FILE":"3239585","LAUNCH_DATE":"2021-02-16","REF_FRAME":"TEME","SEMIMAJOR_AXIS":"6925.331","DECAY_DATE":null,"CENTER_NAME":"EARTH","NORAD_CAT_ID":"47649","RA_OF_ASC_NODE":"155.4641","ARG_OF_PERICENTER":"85.6598","EPHEMERIS_TYPE":"0","MEAN_MOTION_DDOT":"0.0000000000000","OBJECT_NAME":"STARLINK-2032","MEAN_ANOMALY":"274.4677","MEAN_ELEMENT_THEORY":"SGP4","MEAN_MOTION":"15.06405665","TLE_LINE2":"2 47649  53.0539 155.4641 0002506  85.6598 274.4677 15.06405665 47137","OBJECT_TYPE":"PAYLOAD","RCS_SIZE":"LARGE","REV_AT_EPOCH":"4713","BSTAR":"0.00005243100000","ECCENTRICITY":"0.00025060","PERIOD":"95.592","EPOCH":"2021-12-13T21:25:28.009056","MEAN_MOTION_DOT":"0.00000499","TIME_SYSTEM":"UTC","GP_ID":"191660522","OBJECT_ID":"2021-012AF","TLE_LINE1":"1 47649U 21012AF  21347.89268529  .00000499  00000-0  52431-4 0  9993","COUNTRY_CODE":"US","ELEMENT_SET_NO":"999","SITE":"AFETR","INCLINATION":"53.0539","APOAPSIS":"548.932","PERIAPSIS":"545.461","CLASSIFICATION_TYPE":"U"},{"ELEMENT_SET_NO":"999","COUNTRY_CODE":"US","TLE_LINE1":"1 47650U 21012AG  21347.87795948  .00002589  00000-0  19261-3 0  9998","OBJECT_ID":"2021-012AG","GP_ID":"191660275","TIME_SYSTEM":"UTC","MEAN_MOTION_DOT":"0.00002589","EPOCH":"2021-12-13T21:04:15.699072","PERIOD":"95.592","ECCENTRICITY":"0.00021070","CLASSIFICATION_TYPE":"U","PERIAPSIS":"545.742","APOAPSIS":"548.660","INCLINATION":"53.0537","SITE":"AFETR","NORAD_CAT_ID":"47650","CENTER_NAME":"EARTH","DECAY_DATE":null,"SEMIMAJOR_AXIS":"6925.336","REF_FRAME":"TEME","LAUNCH_DATE":"2021-02-16","FILE":"3239585","BSTAR":"0.00019261000000","RCS_SIZE":"LARGE","REV_AT_EPOCH":"4711","TLE_LINE2":"2 47650  53.0537 155.5316 0002107  87.8298 272.2932 15.06404091 47115","OBJECT_TYPE":"PAYLOAD","MEAN_MOTION":"15.06404091","MEAN_ANOMALY":"272.2932","MEAN_ELEMENT_THEORY":"SGP4","OBJECT_NAME":"STARLINK-2033","MEAN_MOTION_DDOT":"0.0000000000000","EPHEMERIS_TYPE":"0","ARG_OF_PERICENTER":"87.8298","RA_OF_ASC_NODE":"155.5316"},{"MEAN_MOTION_DOT":"0.00000748","EPOCH":"2021-12-13T20:17:48.452352","ECCENTRICITY":"0.00026720","PERIOD":"95.593","ELEMENT_SET_NO":"999","GP_ID":"191659521","OBJECT_ID":"2021-012AH","TIME_SYSTEM":"UTC","COUNTRY_CODE":"US","TLE_LINE1":"1 47651U 21012AH  21347.84569968  .00000748  00000-0  69145-4 0  9999","INCLINATION":"53.0537","CLASSIFICATION_TYPE":"U","PERIAPSIS":"545.391","APOAPSIS":"549.092","SITE":"AFETR","REF_FRAME":"TEME","LAUNCH_DATE":"2021-02-16","SEMIMAJOR_AXIS":"6925.377","FILE":"3239585","CENTER_NAME":"EARTH","NORAD_CAT_ID":"47651","DECAY_DATE":null,"OBJECT_NAME":"STARLINK-2035","MEAN_MOTION_DDOT":"0.0000000000000","MEAN_ELEMENT_THEORY":"SGP4","MEAN_ANOMALY":"274.5149","EPHEMERIS_TYPE":"0","ARG_OF_PERICENTER":"85.6145","RA_OF_ASC_NODE":"175.6781","BSTAR":"0.00006914500000","OBJECT_TYPE":"PAYLOAD","TLE_LINE2":"2 47651  53.0537 175.6781 0002672  85.6145 274.5149 15.06390785 46847","MEAN_MOTION":"15.06390785","RCS_SIZE":"LARGE","REV_AT_EPOCH":"4684"},{"DECAY_DATE":null,"CENTER_NAME":"EARTH","NORAD_CAT_ID":"47652","FILE":"3239585","LAUNCH_DATE":"2021-02-16","REF_FRAME":"TEME","SEMIMAJOR_AXIS":"6925.349","MEAN_MOTION":"15.06399731","OBJECT_TYPE":"PAYLOAD","TLE_LINE2":"2 47652  53.0544 175.5519 0002279  83.5714 276.5535 15.06399731 46847","REV_AT_EPOCH":"4684","RCS_SIZE":"LARGE","BSTAR":"0.00004458600000","ARG_OF_PERICENTER":"83.5714","RA_OF_ASC_NODE":"175.5519","EPHEMERIS_TYPE":"0","OBJECT_NAME":"STARLINK-2036","MEAN_MOTION_DDOT":"0.0000000000000","MEAN_ELEMENT_THEORY":"SGP4","MEAN_ANOMALY":"276.5535","TIME_SYSTEM":"UTC","OBJECT_ID":"2021-012AJ","GP_ID":"191659772","TLE_LINE1":"1 47652U 21012AJ  21347.87243177  .00000382  00000-0  44586-4 0  9990","COUNTRY_CODE":"US","ELEMENT_SET_NO":"999","ECCENTRICITY":"0.00022790","PERIOD":"95.592","EPOCH":"2021-12-13T20:56:18.104928","MEAN_MOTION_DOT":"0.00000382","SITE":"AFETR","INCLINATION":"53.0544","PERIAPSIS":"545.636","APOAPSIS":"548.793","CLASSIFICATION_TYPE":"U"},{"SITE":"AFETR","APOAPSIS":"548.620","PERIAPSIS":"545.725","CLASSIFICATION_TYPE":"U","INCLINATION":"53.0536","TLE_LINE1":"1 47653U 21012AK  21347.86690561  .00001989  00000-0  15234-3 0  9994","COUNTRY_CODE":"US","TIME_SYSTEM":"UTC","OBJECT_ID":"2021-012AK","GP_ID":"191660023","ELEMENT_SET_NO":"999","PERIOD":"95.591","ECCENTRICITY":"0.00020900","EPOCH":"2021-12-13T20:48:20.644704","MEAN_MOTION_DOT":"0.00001989","REV_AT_EPOCH":"4711","RCS_SIZE":"LARGE","MEAN_MOTION":"15.06413402","OBJECT_TYPE":"PAYLOAD","TLE_LINE2":"2 47653  53.0536 155.5681 0002090  89.2799 270.8429 15.06413402 47116","BSTAR":"0.00015234000000","ARG_OF_PERICENTER":"89.2799","RA_OF_ASC_NODE":"155.5681","EPHEMERIS_TYPE":"0","MEAN_ELEMENT_THEORY":"SGP4","MEAN_ANOMALY":"270.8429","MEAN_MOTION_DDOT":"0.0000000000000","OBJECT_NAME":"STARLINK-2037","DECAY_DATE":null,"NORAD_CAT_ID":"47653","CENTER_NAME":"EARTH","FILE":"3239585","SEMIMAJOR_AXIS":"6925.307","LAUNCH_DATE":"2021-02-16","REF_FRAME":"TEME"},{"RA_OF_ASC_NODE":"175.5246","ARG_OF_PERICENTER":"85.0840","EPHEMERIS_TYPE":"0","MEAN_MOTION_DDOT":"0.0000000000000","OBJECT_NAME":"STARLINK-2038","MEAN_ANOMALY":"275.0455","MEAN_ELEMENT_THEORY":"SGP4","MEAN_MOTION":"15.06397293","TLE_LINE2":"2 47654  53.0541 175.5246 0002679  85.0840 275.0455 15.06397293 46840","OBJECT_TYPE":"PAYLOAD","REV_AT_EPOCH":"4684","RCS_SIZE":"LARGE","BSTAR":"0.00004227300000","FILE":"3239585","LAUNCH_DATE":"2021-02-16","REF_FRAME":"TEME","SEMIMAJOR_AXIS":"6925.357","DECAY_DATE":null,"CENTER_NAME":"EARTH","NORAD_CAT_ID":"47654","SITE":"AFETR","INCLINATION":"53.0541","PERIAPSIS":"545.367","APOAPSIS":"549.077","CLASSIFICATION_TYPE":"U","ECCENTRICITY":"0.00026790","PERIOD":"95.592","EPOCH":"2021-12-13T21:01:36.851808","MEAN_MOTION_DOT":"0.00000348","TIME_SYSTEM":"UTC","OBJECT_ID":"2021-012AL","GP_ID":"191660775","TLE_LINE1":"1 47654U 21012AL  21347.87612097  .00000348  00000-0  42273-4 0  9996","COUNTRY_CODE":"US","ELEMENT_SET_NO":"999"}];
